{
"type": "FeatureCollection",
"name": "dzialki",
"crs": { "type": "name", "properties": { "name": "urn:ogc:def:crs:EPSG::3857" } },
"xy_coordinate_resolution": 1e-06,
"features": [
{"type":"Feature","properties":{"fid":1,"gml_id":"dzialki.100101_1.0018.205/17","ID_DZIALKI":"100101_1.0018.205/17","NUMER_DZIALKI":"205/17","NUMER_OBREBU":"18","NUMER_JEDNOSTKI":"100101_1","NAZWA_OBREBU":"18","NAZWA_GMINY":"BEŁCHATÓW MIASTO_ZINTEGROWANA","POLE_EWIDENYJNE":null,"KLASOUZYTKI_EGIB":null,"GRUPA_REJESTROWA":null,"DATA":"2026-09-24"},"geometry":{"type":"Polygon","coordinates":[[[2155919.147862,6681184.573239],[2155955.074286,6681183.469841],[2155966.735729,6681264.161069],[2155979.369427,6681262.307358],[2155985.010593,6681300.99854],[2155921.766368,6681270.478776],[2155919.147862,6681184.573239]]]}},
{"type":"Feature","properties":{"fid":2,"gml_id":"dzialki.100101_1.0018.243/4","ID_DZIALKI":"100101_1.0018.243/4","NUMER_DZIALKI":"243/4","NUMER_OBREBU":"18","NUMER_JEDNOSTKI":"100101_1","NAZWA_OBREBU":"18","NAZWA_GMINY":"BEŁCHATÓW MIASTO_ZINTEGROWANA","POLE_EWIDENYJNE":null,"KLASOUZYTKI_EGIB":null,"GRUPA_REJESTROWA":null,"DATA":"2026-09-24"},"geometry":{"type":"Polygon","coordinates":[[[2155897.751325,6681101.822328],[2155902.21403,6681129.642572],[2155858.789913,6681132.18406],[2155849.719459,6681075.600322],[2155893.143279,6681073.058901],[2155897.751325,6681101.822328]]]}},
{"type":"Feature","properties":{"fid":3,"gml_id":"dzialki.100101_1.0018.219/3","ID_DZIALKI":"100101_1.0018.219/3","NUMER_DZIALKI":"219/3","NUMER_OBREBU":"18","NUMER_JEDNOSTKI":"100101_1","NAZWA_OBREBU":"18","NAZWA_GMINY":"BEŁCHATÓW MIASTO_ZINTEGROWANA","POLE_EWIDENYJNE":null,"KLASOUZYTKI_EGIB":null,"GRUPA_REJESTROWA":null,"DATA":"2026-09-24"},"geometry":{"type":"Polygon","coordinates":[[[2155774.946794,6681087.408078],[2155837.068036,6681077.373743],[2155842.650671,6681112.174623],[2155780.54507,6681122.191334],[2155774.946794,6681087.408078]]]}},
{"type":"Feature","properties":{"fid":4,"gml_id":"dzialki.100101_1.0018.218","ID_DZIALKI":"100101_1.0018.218","NUMER_DZIALKI":"218","NUMER_OBREBU":"18","NUMER_JEDNOSTKI":"100101_1","NAZWA_OBREBU":"18","NAZWA_GMINY":"BEŁCHATÓW MIASTO_ZINTEGROWANA","POLE_EWIDENYJNE":null,"KLASOUZYTKI_EGIB":null,"GRUPA_REJESTROWA":null,"DATA":"2026-09-24"},"geometry":{"type":"Polygon","coordinates":[[[2155769.889417,6681169.499611],[2155727.808778,6680907.877534],[2155745.954693,6680906.897465],[2155746.51387,6680910.378918],[2155752.602126,6680948.276243],[2155758.184225,6680983.059007],[2155763.782357,6681017.841835],[2155769.364551,6681052.624885],[2155774.946794,6681087.408078],[2155780.54507,6681122.191334],[2155786.127408,6681156.974814],[2155789.071941,6681175.308252],[2155769.889417,6681169.499611]]]}},
{"type":"Feature","properties":{"fid":5,"gml_id":"dzialki.100101_1.0018.219/10","ID_DZIALKI":"100101_1.0018.219/10","NUMER_DZIALKI":"219/10","NUMER_OBREBU":"18","NUMER_JEDNOSTKI":"100101_1","NAZWA_OBREBU":"18","NAZWA_GMINY":"BEŁCHATÓW MIASTO_ZINTEGROWANA","POLE_EWIDENYJNE":null,"KLASOUZYTKI_EGIB":null,"GRUPA_REJESTROWA":null,"DATA":"2026-09-24"},"geometry":{"type":"Polygon","coordinates":[[[2155845.062704,6681147.464323],[2155848.217282,6681146.958096],[2155842.650671,6681112.174623],[2155837.068036,6681077.373743],[2155831.485537,6681042.590636],[2155825.901487,6681007.807679],[2155820.335067,6680973.024778],[2155814.752632,6680938.226073],[2155809.676791,6680906.606314],[2155816.09123,6680906.229657],[2155857.576597,6681164.916391],[2155848.116058,6681166.43827],[2155845.062704,6681147.464323]]]}},
{"type":"Feature","properties":{"fid":6,"gml_id":"dzialki.100101_1.0018.243/2","ID_DZIALKI":"100101_1.0018.243/2","NUMER_DZIALKI":"243/2","NUMER_OBREBU":"18","NUMER_JEDNOSTKI":"100101_1","NAZWA_OBREBU":"18","NAZWA_GMINY":"BEŁCHATÓW MIASTO_ZINTEGROWANA","POLE_EWIDENYJNE":null,"KLASOUZYTKI_EGIB":null,"GRUPA_REJESTROWA":null,"DATA":"2026-09-24"},"geometry":{"type":"Polygon","coordinates":[[[2155816.09123,6680906.229657],[2155822.507266,6680905.852988],[2155831.57734,6680962.435591],[2155840.649132,6681019.016962],[2155849.719459,6681075.600322],[2155858.789913,6681132.18406],[2155860.325784,6681141.749496],[2155864.002838,6681144.404446],[2155867.038723,6681163.392891],[2155857.576597,6681164.916391],[2155816.09123,6680906.229657]]]}},
{"type":"Feature","properties":{"fid":7,"gml_id":"dzialki.100101_1.0018.222/8","ID_DZIALKI":"100101_1.0018.222/8","NUMER_DZIALKI":"222/8","NUMER_OBREBU":"18","NUMER_JEDNOSTKI":"100101_1","NAZWA_OBREBU":"18","NAZWA_GMINY":"BEŁCHATÓW MIASTO_ZINTEGROWANA","POLE_EWIDENYJNE":null,"KLASOUZYTKI_EGIB":null,"GRUPA_REJESTROWA":null,"DATA":"2026-09-24"},"geometry":{"type":"Polygon","coordinates":[[[2155937.814435,6681037.946985],[2155946.764128,6681093.921938],[2155897.751325,6681101.822328],[2155893.143279,6681073.058901],[2155888.787485,6681045.829709],[2155937.814435,6681037.946985]]]}},
{"type":"Feature","properties":{"fid":8,"gml_id":"dzialki.100101_1.0018.216","ID_DZIALKI":"100101_1.0018.216","NUMER_DZIALKI":"216","NUMER_OBREBU":"18","NUMER_JEDNOSTKI":"100101_1","NAZWA_OBREBU":"18","NAZWA_GMINY":"BEŁCHATÓW MIASTO_ZINTEGROWANA","POLE_EWIDENYJNE":null,"KLASOUZYTKI_EGIB":null,"GRUPA_REJESTROWA":null,"DATA":"2026-09-24"},"geometry":{"type":"Polygon","coordinates":[[[2155674.726305,6680910.773885],[2155713.492937,6681151.426607],[2155686.848869,6681140.518246],[2155665.695792,6681131.86314],[2155652.936887,6681052.938033],[2155642.089046,6680985.753559],[2155630.43025,6680913.586085],[2155638.386633,6680912.764357],[2155674.726305,6680910.773885]]]}},
{"type":"Feature","properties":{"fid":9,"gml_id":"dzialki.100101_1.0018.217","ID_DZIALKI":"100101_1.0018.217","NUMER_DZIALKI":"217","NUMER_OBREBU":"18","NUMER_JEDNOSTKI":"100101_1","NAZWA_OBREBU":"18","NAZWA_GMINY":"BEŁCHATÓW MIASTO_ZINTEGROWANA","POLE_EWIDENYJNE":null,"KLASOUZYTKI_EGIB":null,"GRUPA_REJESTROWA":null,"DATA":"2026-09-24"},"geometry":{"type":"Polygon","coordinates":[[[2155747.892342,6681162.813861],[2155743.281596,6681161.410445],[2155722.475751,6681155.103342],[2155713.492937,6681151.426607],[2155674.726305,6680910.773885],[2155727.808778,6680907.877534],[2155769.889417,6681169.499611],[2155747.892342,6681162.813861]]]}},
{"type":"Feature","properties":{"fid":10,"gml_id":"dzialki.100101_1.0018.205/31","ID_DZIALKI":"100101_1.0018.205/31","NUMER_DZIALKI":"205/31","NUMER_OBREBU":"18","NUMER_JEDNOSTKI":"100101_1","NAZWA_OBREBU":"18","NAZWA_GMINY":"BEŁCHATÓW MIASTO_ZINTEGROWANA","POLE_EWIDENYJNE":null,"KLASOUZYTKI_EGIB":null,"GRUPA_REJESTROWA":null,"DATA":"2026-09-24"},"geometry":{"type":"Polygon","coordinates":[[[2155743.281596,6681161.410445],[2155718.730043,6681221.057282],[2155661.521247,6681193.627826],[2155686.848869,6681140.518246],[2155713.492937,6681151.426607],[2155722.475751,6681155.103342],[2155743.281596,6681161.410445]]]}},
{"type":"Feature","properties":{"fid":11,"gml_id":"dzialki.100101_1.0018.219/1","ID_DZIALKI":"100101_1.0018.219/1","NUMER_DZIALKI":"219/1","NUMER_OBREBU":"18","NUMER_JEDNOSTKI":"100101_1","NAZWA_OBREBU":"18","NAZWA_GMINY":"BEŁCHATÓW MIASTO_ZINTEGROWANA","POLE_EWIDENYJNE":null,"KLASOUZYTKI_EGIB":null,"GRUPA_REJESTROWA":null,"DATA":"2026-09-24"},"geometry":{"type":"Polygon","coordinates":[[[2155789.071941,6681175.308252],[2155786.127408,6681156.974814],[2155845.062704,6681147.464323],[2155848.116058,6681166.43827],[2155857.576597,6681164.916391],[2155861.011413,6681186.332646],[2155853.266096,6681186.573368],[2155828.660317,6681187.319975],[2155789.071941,6681175.308252]]]}},
{"type":"Feature","properties":{"fid":12,"gml_id":"dzialki.100101_1.0018.219/2","ID_DZIALKI":"100101_1.0018.219/2","NUMER_DZIALKI":"219/2","NUMER_OBREBU":"18","NUMER_JEDNOSTKI":"100101_1","NAZWA_OBREBU":"18","NAZWA_GMINY":"BEŁCHATÓW MIASTO_ZINTEGROWANA","POLE_EWIDENYJNE":null,"KLASOUZYTKI_EGIB":null,"GRUPA_REJESTROWA":null,"DATA":"2026-09-24"},"geometry":{"type":"Polygon","coordinates":[[[2155780.54507,6681122.191334],[2155842.650671,6681112.174623],[2155848.217282,6681146.958096],[2155845.062704,6681147.464323],[2155786.127408,6681156.974814],[2155780.54507,6681122.191334]]]}},
{"type":"Feature","properties":{"fid":13,"gml_id":"dzialki.100101_1.0018.222/7","ID_DZIALKI":"100101_1.0018.222/7","NUMER_DZIALKI":"222/7","NUMER_OBREBU":"18","NUMER_JEDNOSTKI":"100101_1","NAZWA_OBREBU":"18","NAZWA_GMINY":"BEŁCHATÓW MIASTO_ZINTEGROWANA","POLE_EWIDENYJNE":null,"KLASOUZYTKI_EGIB":null,"GRUPA_REJESTROWA":null,"DATA":"2026-09-24"},"geometry":{"type":"Polygon","coordinates":[[[2155919.147862,6681184.573239],[2155911.052422,6681184.804552],[2155902.21403,6681129.642572],[2155897.751325,6681101.822328],[2155946.764128,6681093.921938],[2155961.02948,6681183.278076],[2155955.074286,6681183.469841],[2155919.147862,6681184.573239]]]}},
{"type":"Feature","properties":{"fid":14,"gml_id":"dzialki.100101_1.0018.243/3","ID_DZIALKI":"100101_1.0018.243/3","NUMER_DZIALKI":"243/3","NUMER_OBREBU":"18","NUMER_JEDNOSTKI":"100101_1","NAZWA_OBREBU":"18","NAZWA_GMINY":"BEŁCHATÓW MIASTO_ZINTEGROWANA","POLE_EWIDENYJNE":null,"KLASOUZYTKI_EGIB":null,"GRUPA_REJESTROWA":null,"DATA":"2026-09-24"},"geometry":{"type":"Polygon","coordinates":[[[2155861.011413,6681186.332646],[2155857.576597,6681164.916391],[2155867.038723,6681163.392891],[2155864.002838,6681144.404446],[2155860.325784,6681141.749496],[2155858.789913,6681132.18406],[2155902.21403,6681129.642572],[2155911.052422,6681184.804552],[2155877.903752,6681185.808897],[2155861.011413,6681186.332646]]]}},
{"type":"Feature","properties":{"fid":15,"gml_id":"dzialki.100101_1.0018.205/16","ID_DZIALKI":"100101_1.0018.205/16","NUMER_DZIALKI":"205/16","NUMER_OBREBU":"18","NUMER_JEDNOSTKI":"100101_1","NAZWA_OBREBU":"18","NAZWA_GMINY":"BEŁCHATÓW MIASTO_ZINTEGROWANA","POLE_EWIDENYJNE":null,"KLASOUZYTKI_EGIB":null,"GRUPA_REJESTROWA":null,"DATA":"2026-09-24"},"geometry":{"type":"Polygon","coordinates":[[[2155854.832093,6681238.138751],[2155853.266096,6681186.573368],[2155861.011413,6681186.332646],[2155877.903752,6681185.808897],[2155911.052422,6681184.804552],[2155919.147862,6681184.573239],[2155921.766368,6681270.478776],[2155854.832093,6681238.138751]]]}},
{"type":"Feature","properties":{"fid":16,"gml_id":"dzialki.100101_1.0018.205/15","ID_DZIALKI":"100101_1.0018.205/15","NUMER_DZIALKI":"205/15","NUMER_OBREBU":"18","NUMER_JEDNOSTKI":"100101_1","NAZWA_OBREBU":"18","NAZWA_GMINY":"BEŁCHATÓW MIASTO_ZINTEGROWANA","POLE_EWIDENYJNE":null,"KLASOUZYTKI_EGIB":null,"GRUPA_REJESTROWA":null,"DATA":"2026-09-24"},"geometry":{"type":"Polygon","coordinates":[[[2155737.436223,6681188.223023],[2155747.892342,6681162.813861],[2155769.889417,6681169.499611],[2155789.071941,6681175.308252],[2155828.660317,6681187.319975],[2155853.266096,6681186.573368],[2155854.832093,6681238.138751],[2155855.045572,6681245.375718],[2155817.917456,6681227.343017],[2155809.517461,6681223.238712],[2155788.397713,6681212.996949],[2155737.436223,6681188.223023]]]}},
{"type":"Feature","properties":{"fid":17,"gml_id":"dzialki.100101_1.0018.205/18","ID_DZIALKI":"100101_1.0018.205/18","NUMER_DZIALKI":"205/18","NUMER_OBREBU":"18","NUMER_JEDNOSTKI":"100101_1","NAZWA_OBREBU":"18","NAZWA_GMINY":"BEŁCHATÓW MIASTO_ZINTEGROWANA","POLE_EWIDENYJNE":null,"KLASOUZYTKI_EGIB":null,"GRUPA_REJESTROWA":null,"DATA":"2026-09-24"},"geometry":{"type":"Polygon","coordinates":[[[2155854.832093,6681238.138751],[2155921.766368,6681270.478776],[2155985.010593,6681300.99854],[2155986.127933,6681308.666971],[2155951.82811,6681292.439673],[2155855.045572,6681245.375718],[2155854.832093,6681238.138751]]]}},
{"type":"Feature","properties":{"fid":18,"gml_id":"dzialki.100101_1.0018.203/6","ID_DZIALKI":"100101_1.0018.203/6","NUMER_DZIALKI":"203/6","NUMER_OBREBU":"18","NUMER_JEDNOSTKI":"100101_1","NAZWA_OBREBU":"18","NAZWA_GMINY":"BEŁCHATÓW MIASTO_ZINTEGROWANA","POLE_EWIDENYJNE":null,"KLASOUZYTKI_EGIB":null,"GRUPA_REJESTROWA":null,"DATA":"2026-09-24"},"geometry":{"type":"Polygon","coordinates":[[[2155855.045572,6681245.375718],[2155951.82811,6681292.439673],[2155907.308041,6681404.602331],[2155902.990907,6681406.973654],[2155892.057433,6681429.908247],[2155892.946025,6681440.767514],[2155749.239707,6681371.318004],[2155817.917456,6681227.343017],[2155855.045572,6681245.375718]]]}},
{"type":"Feature","properties":{"fid":19,"gml_id":"dzialki.100101_1.0018.203/5","ID_DZIALKI":"100101_1.0018.203/5","NUMER_DZIALKI":"203/5","NUMER_OBREBU":"18","NUMER_JEDNOSTKI":"100101_1","NAZWA_OBREBU":"18","NAZWA_GMINY":"BEŁCHATÓW MIASTO_ZINTEGROWANA","POLE_EWIDENYJNE":null,"KLASOUZYTKI_EGIB":null,"GRUPA_REJESTROWA":null,"DATA":"2026-09-24"},"geometry":{"type":"Polygon","coordinates":[[[2155741.951933,6681367.802634],[2155809.517461,6681223.238712],[2155817.917456,6681227.343017],[2155749.239707,6681371.318004],[2155741.951933,6681367.802634]]]}},
{"type":"Feature","properties":{"fid":20,"gml_id":"dzialki.100101_1.0018.203/3","ID_DZIALKI":"100101_1.0018.203/3","NUMER_DZIALKI":"203/3","NUMER_OBREBU":"18","NUMER_JEDNOSTKI":"100101_1","NAZWA_OBREBU":"18","NAZWA_GMINY":"BEŁCHATÓW MIASTO_ZINTEGROWANA","POLE_EWIDENYJNE":null,"KLASOUZYTKI_EGIB":null,"GRUPA_REJESTROWA":null,"DATA":"2026-09-24"},"geometry":{"type":"Polygon","coordinates":[[[2155716.787616,6681355.649352],[2155788.397713,6681212.996949],[2155809.517461,6681223.238712],[2155741.951933,6681367.802634],[2155716.787616,6681355.649352]]]}},
{"type":"Feature","properties":{"fid":21,"gml_id":"dzialki.100101_1.0018.203/1","ID_DZIALKI":"100101_1.0018.203/1","NUMER_DZIALKI":"203/1","NUMER_OBREBU":"18","NUMER_JEDNOSTKI":"100101_1","NAZWA_OBREBU":"18","NAZWA_GMINY":"BEŁCHATÓW MIASTO_ZINTEGROWANA","POLE_EWIDENYJNE":null,"KLASOUZYTKI_EGIB":null,"GRUPA_REJESTROWA":null,"DATA":"2026-09-24"},"geometry":{"type":"Polygon","coordinates":[[[2155676.501506,6681336.200245],[2155737.436223,6681188.223023],[2155788.397713,6681212.996949],[2155716.787616,6681355.649352],[2155676.501506,6681336.200245]]]}},
{"type":"Feature","properties":{"fid":22,"gml_id":"dzialki.100101_1.0018.205/20","ID_DZIALKI":"100101_1.0018.205/20","NUMER_DZIALKI":"205/20","NUMER_OBREBU":"18","NUMER_JEDNOSTKI":"100101_1","NAZWA_OBREBU":"18","NAZWA_GMINY":"BEŁCHATÓW MIASTO_ZINTEGROWANA","POLE_EWIDENYJNE":null,"KLASOUZYTKI_EGIB":null,"GRUPA_REJESTROWA":null,"DATA":"2026-09-24"},"geometry":{"type":"Polygon","coordinates":[[[2155676.501506,6681336.200245],[2155672.163946,6681334.135055],[2155673.555554,6681330.760697],[2155718.730043,6681221.057282],[2155743.281596,6681161.410445],[2155747.892342,6681162.813861],[2155737.436223,6681188.223023],[2155676.501506,6681336.200245]]]}}
]
}
